STARLINK-31048          
1 58544U 23192P   26068.39407488  .00000536  00000+0  30230-4 0  9993
2 58544  53.1609  63.8180 0001316  94.5572 265.5580 15.30193289125944
TEVEL2-1                
1 63217U 25052H   26068.64782323  .00020683  00000+0  70600-3 0  9994
2 63217  97.3991 324.7682 0004767 104.8919 255.2849 15.30341923 54855
